{
  "norad_id": 61855,
  "name": "STARLINK-32391",
  "history": [
    {
      "epoch": "2026-03-28T19:24:25.543872",
      "apogee_km": 483.5663405929572,
      "perigee_km": 482.4651255792969,
      "latitude_deg": -40.467788515692746,
      "longitude_deg": 83.12838208023459,
      "semi_major_axis_km": 6861.152733086127,
      "eccentricity": 8.025e-05,
      "inclination_deg": 43.0016,
      "raan_deg": 129.8431,
      "arg_perigee_deg": 260.0649,
      "mean_anomaly_deg": 100.0113,
      "mean_motion_rev_day": 15.27591142
    }
  ]
}